{
    "data": [
        {
            "location": "Abbey Wood",
            "borough": "Greenwich",
            "town": "LONDON",
            "postcode": "SE2",
            "code": "020",
            "os": "TQ465785"
        },
        {
            "location": "Acton",
            "borough": "Ealing",
            "town": "LONDON",
            "postcode": "W3, W4",
            "code": "020",
            "os": "TQ205805"
        },
        {
            "location": "Addington",
            "borough": "Croydon",
            "town": "CROYDON",
            "postcode": "CR0",
            "code": "020",
            "os": "TQ375645"
        },
        {
            "location": "Addiscombe",
            "borough": "Croydon",
            "town": "CROYDON",
            "postcode": "CR0",
            "code": "020",
            "os": "TQ345665"
        },
        {
            "location": "Aldborough Hatch",
            "borough": "Redbridge",
            "town": "ILFORD",
            "postcode": "IG2",
            "code": "020",
            "os": "TQ455895"
        },
        {
            "location": "Aldgate",
            "borough": "City",
            "town": "LONDON",
            "postcode": "EC3",
            "code": "020",
            "os": "TQ334813"
        },
        {
            "location": "Aldwych",
            "borough": "Westminster",
            "town": "LONDON",
            "postcode": "WC2",
            "code": "020",
            "os": "TQ307810"
        },
        {
            "location": "Alperton",
            "borough": "Brent",
            "town": "WEMBLEY",
            "postcode": "HA0",
            "code": "020",
            "os": "TQ185835"
        },
        {
            "location": "Anerley",
            "borough": "Bromley",
            "town": "LONDON",
            "postcode": "SE20",
            "code": "020",
            "os": "TQ345695"
        },
        {
            "location": "Angel",
            "borough": "Islington",
            "town": "ISLINGTON",
            "postcode": "EC1",
            "code": "020",
            "os": "TQ345665"
        },
        {
            "location": "Aperfield",
            "borough": "Bromley",
            "town": "WESTERHAM",
            "postcode": "TN16",
            "code": "01959",
            "os": "TQ425585"
        },
        {
            "location": "Archway",
            "borough": "Islington",
            "town": "LONDON",
            "postcode": "N19",
            "code": "020",
            "os": "TQ285875"
        },
        {
            "location": "Ardleigh Green",
            "borough": "Havering",
            "town": "HORNCHURCH",
            "postcode": "RM11",
            "code": "01708",
            "os": "TQ535895"
        },
        {
            "location": "Arkley",
            "borough": "Barnet",
            "town": "BARNET, LONDON",
            "postcode": "EN5, NW7",
            "code": "020",
            "os": "TQ225955"
        },
        {
            "location": "Arnos Grove",
            "borough": "Enfield",
            "town": "LONDON",
            "postcode": "N11, N14",
            "code": "020",
            "os": "TQ295925"
        },
        {
            "location": "Balham",
            "borough": "Wandsworth",
            "town": "LONDON",
            "postcode": "SW12",
            "code": "020",
            "os": "TQ285735"
        },
        {
            "location": "Bankside",
            "borough": "Southwark",
            "town": "LONDON",
            "postcode": "SE1",
            "code": "020",
            "os": "TQ325795"
        },
        {
            "location": "Barbican",
            "borough": "City",
            "town": "LONDON",
            "postcode": "EC1",
            "code": "020",
            "os": "TQ322818"
        },
        {
            "location": "Barking",
            "borough": "Barking and Dagenham",
            "town": "BARKING",
            "postcode": "IG11",
            "code": "020",
            "os": "TQ440840"
        },
        {
            "location": "Barkingside",
            "borough": "Redbridge",
            "town": "ILFORD",
            "postcode": "IG6",
            "code": "020",
            "os": "TQ445895"
        },
        {
            "location": "Barnehurst",
            "borough": "Bexley",
            "town": "BEXLEYHEATH",
            "postcode": "DA7",
            "code": "01322",
            "os": "TQ505755"
        },
        {
            "location": "Barnes",
            "borough": "Richmond upon Thames",
            "town": "LONDON",
            "postcode": "SW13",
            "code": "020",
            "os": "TQ225765"
        },
        {
            "location": "Barnes Cray",
            "borough": "Bexley",
            "town": "DARTFORD",
            "postcode": "DA1",
            "code": "01322",
            "os": "TQ525755"
        },
        {
            "location": "Barnet (also Chipping Barnet, High Barnet)",
            "borough": "Barnet",
            "town": "BARNET",
            "postcode": "EN5",
            "code": "020",
            "os": "TQ245955"
        },
        {
            "location": "Barnsbury",
            "borough": "Islington",
            "town": "LONDON",
            "postcode": "N1",
            "code": "020",
            "os": "TQ305845"
        },
        {
            "location": "Battersea",
            "borough": "Wandsworth",
            "town": "LONDON",
            "postcode": "SW11",
            "code": "020",
            "os": "TQ285765"
        },
        {
            "location": "Bayswater",
            "borough": "Wesminster",
            "town": "LONDON",
            "postcode": "W2",
            "code": "020",
            "os": "TQ255805"
        },
        {
            "location": "Beckenham",
            "borough": "Bromley",
            "town": "BECKENHAM, LONDON",
            "postcode": "BR3, SE20",
            "code": "020",
            "os": "TQ375695"
        },
        {
            "location": "Beckton",
            "borough": "Newham",
            "town": "LONDON, BARKING",
            "postcode": "E6, E16, IG11",
            "code": "020",
            "os": "TQ435815"
        },
        {
            "location": "Becontree",
            "borough": "Barking and Dagenham",
            "town": "DAGENHAM",
            "postcode": "RM9",
            "code": "020",
            "os": "TQ485855"
        },
        {
            "location": "Becontree Heath",
            "borough": "Barking and Dagenham",
            "town": "DAGENHAM",
            "postcode": "RM8",
            "code": "020",
            "os": "TQ493871"
        },
        {
            "location": "Beddington",
            "borough": "Sutton",
            "town": "WALLINGTON, CROYDON",
            "postcode": "SM6, CR0",
            "code": "020",
            "os": "TQ305655"
        },
        {
            "location": "Bedford Park",
            "borough": "Ealing",
            "town": "LONDON",
            "postcode": "W4",
            "code": "020",
            "os": "TQ208793"
        },
        {
            "location": "Belgravia",
            "borough": "Westminster",
            "town": "LONDON",
            "postcode": "SW1",
            "code": "020",
            "os": "TQ275795"
        },
        {
            "location": "Bellingham",
            "borough": "Lewisham",
            "town": "LONDON",
            "postcode": "SE6",
            "code": "020",
            "os": "TQ375715"
        },
        {
            "location": "Belmont",
            "borough": "Harrow",
            "town": "HARROW, STANMORE",
            "postcode": "HA3, HA7",
            "code": "020",
            "os": "TQ165905"
        },
        {
            "location": "Belmont",
            "borough": "Sutton",
            "town": "SUTTON",
            "postcode": "SM2",
            "code": "020",
            "os": "TQ253620"
        },
        {
            "location": "Belsize Park",
            "borough": "Camden",
            "town": "LONDON",
            "postcode": "NW3",
            "code": "020",
            "os": "TQ273845"
        },
        {
            "location": "Belvedere",
            "borough": "Bexley",
            "town": "BELVEDERE",
            "postcode": "DA17",
            "code": "020",
            "os": "TQ495785"
        },
        {
            "location": "Bermondsey",
            "borough": "Southwark",
            "town": "LONDON",
            "postcode": "SE1",
            "code": "020",
            "os": "TQ335795"
        },
        {
            "location": "Berrylands",
            "borough": "Kingston upon Thames",
            "town": "SURBITON",
            "postcode": "KT5",
            "code": "020",
            "os": "TQ195675"
        },
        {
            "location": "Bethnal Green",
            "borough": "Tower Hamlets",
            "town": "LONDON",
            "postcode": "E2",
            "code": "020",
            "os": "TQ345825"
        },
        {
            "location": "Bexley (also Old Bexley, Bexley Village)",
            "borough": "Bexley",
            "town": "BEXLEY",
            "postcode": "DA5",
            "code": "020",
            "os": "TQ465755"
        },
        {
            "location": "Bexleyheath (also Bexley New Town)",
            "borough": "Bexley",
            "town": "BEXLEYHEATH, LONDON",
            "postcode": "DA6, DA7, SE2",
            "code": "020",
            "os": "TQ485755"
        },
        {
            "location": "Bickley",
            "borough": "Bromley",
            "town": "BROMLEY",
            "postcode": "BR3",
            "code": "020",
            "os": "TQ423688"
        },
        {
            "location": "Biggin Hill",
            "borough": "Bromley",
            "town": "WESTERHAM",
            "postcode": "TN16",
            "code": "01959",
            "os": "TQ418590"
        },
        {
            "location": "Blackfen",
            "borough": "Bexley",
            "town": "SIDCUP",
            "postcode": "DA15",
            "code": "020",
            "os": "TQ455745"
        },
        {
            "location": "Blackfriars",
            "borough": "City",
            "town": "LONDON",
            "postcode": "EC4",
            "code": "020",
            "os": "TQ318808"
        },
        {
            "location": "Blackheath",
            "borough": "Lewisham",
            "town": "LONDON",
            "postcode": "SE3",
            "code": "020",
            "os": "TQ395765"
        },
        {
            "location": "Blackwall",
            "borough": "Tower Hamlets",
            "town": "LONDON",
            "postcode": "E14",
            "code": "020",
            "os": "TQ385805"
        },
        {
            "location": "Bloomsbury",
            "borough": "Camden",
            "town": "LONDON",
            "postcode": "WC1",
            "code": "020",
            "os": "TQ305825"
        },
        {
            "location": "Botany Bay",
            "borough": "Enfield",
            "town": "ENFIELD",
            "postcode": "EN2",
            "code": "020",
            "os": "TQ297992"
        },
        {
            "location": "Bounds Green",
            "borough": "Haringey",
            "town": "LONDON",
            "postcode": "N11, N22",
            "code": "020",
            "os": "TQ298914"
        },
        {
            "location": "Bow",
            "borough": "Tower Hamlets",
            "town": "LONDON",
            "postcode": "E3",
            "code": "020",
            "os": "TQ365825"
        },
        {
            "location": "Bowes Park",
            "borough": "Haringey",
            "town": "LONDON",
            "postcode": "N22",
            "code": "020",
            "os": "TQ305915"
        },
        {
            "location": "Brentford",
            "borough": "Hounslow",
            "town": "BRENTFORD",
            "postcode": "TW8",
            "code": "020",
            "os": "TQ177778"
        },
        {
            "location": "Brent Cross",
            "borough": "Barnet",
            "town": "LONDON",
            "postcode": "NW2, NW4",
            "code": "020",
            "os": "TQ230874"
        },
        {
            "location": "Brent Park",
            "borough": "Brent",
            "town": "LONDON",
            "postcode": "NW10",
            "code": "020",
            "os": "TQ209852"
        },
        {
            "location": "Brimsdown",
            "borough": "Enfield",
            "town": "ENFIELD",
            "postcode": "EN3",
            "code": "020",
            "os": "TQ365975"
        },
        {
            "location": "Brixton",
            "borough": "Lambeth",
            "town": "LONDON",
            "postcode": "SW2, SW9",
            "code": "020",
            "os": "TQ315755"
        },
        {
            "location": "Brockley",
            "borough": "Lewisham",
            "town": "LONDON",
            "postcode": "SE4",
            "code": "020",
            "os": "TQ365745"
        },
        {
            "location": "Bromley",
            "borough": "Bromley",
            "town": "BROMLEY",
            "postcode": "BR1",
            "code": "020",
            "os": "TQ405695"
        },
        {
            "location": "Bromley (also Bromley-by-Bow)",
            "borough": "Tower Hamlets",
            "town": "LONDON",
            "postcode": "E3",
            "code": "020",
            "os": "TQ375825"
        },
        {
            "location": "Bromley Common",
            "borough": "Bromley",
            "town": "BROMLEY",
            "postcode": "BR3",
            "code": "020",
            "os": "TQ416669"
        },
        {
            "location": "Brompton",
            "borough": "Kensington and Chelsea",
            "town": "LONDON",
            "postcode": "SW3",
            "code": "020",
            "os": "TQ275795"
        },
        {
            "location": "Brondesbury",
            "borough": "Brent",
            "town": "LONDON",
            "postcode": "NW6",
            "code": "020",
            "os": "TQ245845"
        },
        {
            "location": "Brunswick Park",
            "borough": "Barnet",
            "town": "LONDON",
            "postcode": "N11",
            "code": "020",
            "os": "TQ280932"
        },
        {
            "location": "Bulls Cross",
            "borough": "Enfield",
            "town": "ENFIELD",
            "postcode": "EN2, EN3",
            "code": "020",
            "os": "TQ342994"
        },
        {
            "location": "Burnt Oak",
            "borough": "Barnet",
            "town": "EDGWARE",
            "postcode": "HA8",
            "code": "020",
            "os": "TQ205915"
        },
        {
            "location": "Burroughs, The",
            "borough": "Barnet",
            "town": "LONDON",
            "postcode": "NW4",
            "code": "020",
            "os": "TQ227891"
        },
        {
            "location": "Camberwell",
            "borough": "Southwark",
            "town": "LONDON",
            "postcode": "SE5",
            "code": "020",
            "os": "TQ325767"
        },
        {
            "location": "Cambridge Heath",
            "borough": "Tower Hamlets",
            "town": "LONDON",
            "postcode": "E2",
            "code": "020",
            "os": "TQ348832"
        },
        {
            "location": "Camden Town",
            "borough": "Camden",
            "town": "LONDON",
            "postcode": "NW1",
            "code": "020",
            "os": "TQ295845"
        },
        {
            "location": "Canary Wharf",
            "borough": "Tower Hamlets",
            "town": "LONDON",
            "postcode": "E14",
            "code": "020",
            "os": "TQ375802"
        },
        {
            "location": "Cann Hall",
            "borough": "Waltham Forest",
            "town": "LONDON",
            "postcode": "E11",
            "code": "020",
            "os": "TQ395875"
        },
        {
            "location": "Canning Town",
            "borough": "Newham",
            "town": "LONDON",
            "postcode": "E16",
            "code": "020",
            "os": "TQ405815"
        },
        {
            "location": "Canonbury",
            "borough": "Islington",
            "town": "LONDON",
            "postcode": "N1",
            "code": "020",
            "os": "TQ325845"
        },
        {
            "location": "Carshalton",
            "borough": "Sutton",
            "town": "CARSHALTON",
            "postcode": "SM5",
            "code": "020",
            "os": "TQ275645"
        },
        {
            "location": "Castelnau",
            "borough": "Richmond upon Thames",
            "town": "LONDON",
            "postcode": "SW13",
            "code": "020",
            "os": "TQ226776"
        },
        {
            "location": "Catford",
            "borough": "Lewisham",
            "town": "LONDON",
            "postcode": "SE6",
            "code": "020",
            "os": "TQ385735"
        },
        {
            "location": "Chadwell Heath",
            "borough": "Redbridge",
            "town": "ROMFORD",
            "postcode": "RM6",
            "code": "020",
            "os": "TQ485885"
        },
        {
            "location": "Chalk Farm",
            "borough": "Camden",
            "town": "LONDON",
            "postcode": "NW1",
            "code": "020",
            "os": "TQ281844"
        },
        {
            "location": "Charing Cross",
            "borough": "Westminster",
            "town": "LONDON",
            "postcode": "WC2",
            "code": "020",
            "os": "TQ305805"
        },
        {
            "location": "Charlton",
            "borough": "Greenwich",
            "town": "LONDON",
            "postcode": "SE7",
            "code": "020",
            "os": "TQ415785"
        },
        {
            "location": "Chase Cross",
            "borough": "Havering",
            "town": "ROMFORD",
            "postcode": "RM5",
            "code": "01708",
            "os": "TQ505925"
        },
        {
            "location": "Cheam",
            "borough": "Sutton",
            "town": "SUTTON",
            "postcode": "SM3",
            "code": "020",
            "os": "TQ245625"
        },
        {
            "location": "Chelsea",
            "borough": "Kensington and Chelsea",
            "town": "LONDON",
            "postcode": "SW3",
            "code": "020",
            "os": "TQ275775"
        },
        {
            "location": "Chelsfield",
            "borough": "Bromley",
            "town": "ORPINGTON",
            "postcode": "BR6",
            "code": "01689",
            "os": "TQ482642"
        },
        {
            "location": "Chessington",
            "borough": "Kingston upon Thames",
            "town": "CHESSINGTON",
            "postcode": "KT9",
            "code": "020",
            "os": "TQ183641"
        },
        {
            "location": "Childs Hill",
            "borough": "Barnet",
            "town": "LONDON",
            "postcode": "NW2",
            "code": "020",
            "os": "TQ245865"
        },
        {
            "location": "Chinatown",
            "borough": "Westminster",
            "town": "LONDON",
            "postcode": "W1",
            "code": "020",
            "os": "TQ395895"
        },
        {
            "location": "Chingford",
            "borough": "Waltham Forest",
            "town": "LONDON",
            "postcode": "E4",
            "code": "020",
            "os": "TQ395945"
        },
        {
            "location": "Chislehurst",
            "borough": "Bromley",
            "town": "CHISLEHURST",
            "postcode": "BR7",
            "code": "020",
            "os": "TQ445705"
        },
        {
            "location": "Chiswick",
            "borough": "Hounslow &amp; Ealing",
            "town": "LONDON",
            "postcode": "W4",
            "code": "020",
            "os": "TQ205785"
        },
        {
            "location": "Church End",
            "borough": "Brent",
            "town": "LONDON",
            "postcode": "NW10",
            "code": "020",
            "os": "TQ205785"
        },
        {
            "location": "Church End",
            "borough": "Barnet",
            "town": "LONDON",
            "postcode": "N3",
            "code": "020",
            "os": "TQ255905"
        },
        {
            "location": "Clapham",
            "borough": "Lambeth",
            "town": "LONDON",
            "postcode": "SW4",
            "code": "020",
            "os": "TQ295755"
        },
        {
            "location": "Clerkenwell",
            "borough": "Islington",
            "town": "LONDON",
            "postcode": "EC1",
            "code": "020",
            "os": "TQ315825"
        },
        {
            "location": "Cockfosters",
            "borough": "Barnet",
            "town": "BARNET",
            "postcode": "EN4",
            "code": "020",
            "os": "TQ275965"
        },
        {
            "location": "Colindale",
            "borough": "Barnet",
            "town": "LONDON",
            "postcode": "NW9",
            "code": "020",
            "os": "TQ213897"
        },
        {
            "location": "Collier Row",
            "borough": "Havering",
            "town": "ROMFORD",
            "postcode": "RM5",
            "code": "01708",
            "os": "TQ505905"
        },
        {
            "location": "Colliers Wood",
            "borough": "Merton",
            "town": "LONDON",
            "postcode": "SW19",
            "code": "020",
            "os": "TQ275705"
        },
        {
            "location": "Colney Hatch",
            "borough": "Barnet",
            "town": "LONDON",
            "postcode": "N11, N10",
            "code": "020",
            "os": "TQ278918"
        },
        {
            "location": "Colyers",
            "borough": "Bexley",
            "town": "ERITH",
            "postcode": "DA8",
            "code": "01322",
            "os": "TQ512768"
        },
        {
            "location": "Coney Hall",
            "borough": "Bromley",
            "town": "WEST WICKHAM",
            "postcode": "BR4",
            "code": "020",
            "os": "TQ394653"
        },
        {
            "location": "Coombe",
            "borough": "Croydon",
            "town": "CROYDON",
            "postcode": "CR0",
            "code": "020",
            "os": "TQ342647"
        },
        {
            "location": "Coombe",
            "borough": "Kingston upon Thames",
            "town": "KINGSTON UPON THAMES",
            "postcode": "KT2",
            "code": "020",
            "os": "TQ208703"
        },
        {
            "location": "Coulsdon",
            "borough": "Croydon",
            "town": "COULSDON",
            "postcode": "CR5",
            "code": "020, 01737",
            "os": "TQ298596"
        },
        {
            "location": "Covent Garden",
            "borough": "Westminster",
            "town": "LONDON",
            "postcode": "WC2",
            "code": "020",
            "os": "TQ303809"
        },
        {
            "location": "Cowley",
            "borough": "Hillingdon",
            "town": "UXBRIDGE",
            "postcode": "UB8",
            "code": "01895",
            "os": "TQ055825"
        },
        {
            "location": "Cranford",
            "borough": "Hounslow",
            "town": "HOUNSLOW",
            "postcode": "TW5",
            "code": "020",
            "os": "TQ105765"
        },
        {
            "location": "Cranham",
            "borough": "Havering",
            "town": "UPMINSTER",
            "postcode": "RM14",
            "code": "01708",
            "os": "TQ575875"
        },
        {
            "location": "Crayford",
            "borough": "Bexley",
            "town": "DARTFORD",
            "postcode": "DA1",
            "code": "01322",
            "os": "TQ515745"
        },
        {
            "location": "Creekmouth",
            "borough": "Barking and Dagenham",
            "town": "BARKING",
            "postcode": "IG11",
            "code": "020",
            "os": "TQ457820"
        },
        {
            "location": "Crews Hill",
            "borough": "Enfield",
            "town": "ENFIELD",
            "postcode": "EN2",
            "code": "020",
            "os": "TQ315995"
        },
        {
            "location": "Cricklewood",
            "borough": "Barnet, Brent, Camden",
            "town": "LONDON",
            "postcode": "NW2",
            "code": "020",
            "os": "TQ235855"
        },
        {
            "location": "Crofton Park",
            "borough": "Lewisham",
            "town": "LONDON",
            "postcode": "SE4",
            "code": "020",
            "os": "TQ367744"
        },
        {
            "location": "Crook Log",
            "borough": "Bexley",
            "town": "BEXLEYHEATH",
            "postcode": "DA6",
            "code": "020",
            "os": "TQ480754"
        },
        {
            "location": "Crossness",
            "borough": "Bexley",
            "town": "LONDON",
            "postcode": "SE2",
            "code": "020",
            "os": "TQ480800"
        },
        {
            "location": "Crouch End",
            "borough": "Haringey",
            "town": "LONDON",
            "postcode": "N8",
            "code": "020",
            "os": "TQ295885"
        },
        {
            "location": "Croydon",
            "borough": "Croydon",
            "town": "CROYDON",
            "postcode": "CR0",
            "code": "020",
            "os": "TQ335655"
        },
        {
            "location": "Crystal Palace",
            "borough": "Bromley",
            "town": "LONDON",
            "postcode": "SE19, SE20, SE26",
            "code": "020",
            "os": "TQ341708"
        },
        {
            "location": "Cubitt Town",
            "borough": "Tower Hamlets",
            "town": "LONDON",
            "postcode": "E14",
            "code": "020",
            "os": "TQ385795"
        },
        {
            "location": "Cudham",
            "borough": "Bromley",
            "town": "SEVENOAKS",
            "postcode": "TN14",
            "code": "01959",
            "os": "TQ445595"
        },
        {
            "location": "Custom House",
            "borough": "Newham",
            "town": "LONDON",
            "postcode": "E16",
            "code": "020",
            "os": "TQ408807"
        },
        {
            "location": "Dagenham",
            "borough": "Barking and Dagenham",
            "town": "DAGENHAM",
            "postcode": "RM9, RM10",
            "code": "020",
            "os": "TQ485845"
        },
        {
            "location": "Dalston",
            "borough": "Hackney",
            "town": "LONDON",
            "postcode": "E8",
            "code": "020",
            "os": "TQ345845"
        },
        {
            "location": "Dartmouth Park",
            "borough": "Camden",
            "town": "LONDON",
            "postcode": "NW5",
            "code": "020",
            "os": "TQ287861"
        },
        {
            "location": "De Beauvoir Town",
            "borough": "Islington",
            "town": "LONDON",
            "postcode": "N1",
            "code": "020",
            "os": "TQ332842"
        },
        {
            "location": "Denmark Hill",
            "borough": "Southwark",
            "town": "LONDON",
            "postcode": "SE5",
            "code": "020",
            "os": "TQ327760"
        },
        {
            "location": "Deptford",
            "borough": "Lewisham",
            "town": "LONDON",
            "postcode": "SE8",
            "code": "020",
            "os": "TQ365775"
        },
        {
            "location": "Dollis Hill",
            "borough": "Brent",
            "town": "LONDON",
            "postcode": "NW2",
            "code": "020",
            "os": "TQ225865"
        },
        {
            "location": "Downe",
            "borough": "Bromley",
            "town": "ORPINGTON",
            "postcode": "BR6",
            "code": "01689",
            "os": "TQ435615"
        },
        {
            "location": "Downham",
            "borough": "Bromley,<br>\nLewisham",
            "town": "BROMLEY",
            "postcode": "BR1",
            "code": "020",
            "os": "TQ395715"
        },
        {
            "location": "Dulwich",
            "borough": "Southwark",
            "town": "LONDON",
            "postcode": "SE21",
            "code": "020",
            "os": "TQ345725"
        },
        {
            "location": "Ealing",
            "borough": "Ealing",
            "town": "LONDON",
            "postcode": "W5, W13",
            "code": "020",
            "os": "TQ175805"
        },
        {
            "location": "Earls Court",
            "borough": "Kensington and Chelsea",
            "town": "LONDON",
            "postcode": "SW5, SW10",
            "code": "020",
            "os": "TQ254784"
        },
        {
            "location": "Earlsfield",
            "borough": "Wandsworth",
            "town": "LONDON",
            "postcode": "SW18",
            "code": "020",
            "os": "TQ265735"
        },
        {
            "location": "East Barnet",
            "borough": "Barnet",
            "town": "BARNET",
            "postcode": "EN4",
            "code": "020",
            "os": "TQ275945"
        },
        {
            "location": "East Bedfont",
            "borough": "Hounslow",
            "town": "FELTHAM",
            "postcode": "TW14",
            "code": "020",
            "os": "TQ085735"
        },
        {
            "location": "East Dulwich",
            "borough": "Southwark",
            "town": "LONDON",
            "postcode": "SE22",
            "code": "020",
            "os": "TQ345745"
        },
        {
            "location": "East Finchley",
            "borough": "Barnet",
            "town": "LONDON",
            "postcode": "N2",
            "code": "020",
            "os": "TQ265895"
        },
        {
            "location": "East Ham",
            "borough": "Newham",
            "town": "LONDON",
            "postcode": "E6",
            "code": "020",
            "os": "TQ425835"
        },
        {
            "location": "East Sheen",
            "borough": "Richmond upon Thames",
            "town": "LONDON",
            "postcode": "SW14",
            "code": "020",
            "os": "TQ205755"
        },
        {
            "location": "Eastcote",
            "borough": "Hillingdon",
            "town": "PINNER",
            "postcode": "HA5, HA4",
            "code": "020",
            "os": "TQ115885"
        },
        {
            "location": "Eden Park",
            "borough": "Bromley",
            "town": "BECKENHAM",
            "postcode": "BR3",
            "code": "020",
            "os": "TQ373675"
        },
        {
            "location": "Edgware",
            "borough": "Barnet",
            "town": "EDGWARE",
            "postcode": "HA8",
            "code": "020",
            "os": "TQ195925"
        },
        {
            "location": "Edmonton",
            "borough": "Enfield",
            "town": "LONDON",
            "postcode": "N9, N18",
            "code": "020",
            "os": "TQ335925"
        },
        {
            "location": "Eel Pie Island",
            "borough": "Richmond upon Thames",
            "town": "TWICKENHAM",
            "postcode": "TW1",
            "code": "020",
            "os": "TQ164731"
        },
        {
            "location": "Elephant and Castle",
            "borough": "Southwark",
            "town": "LONDON",
            "postcode": "SE1, SE11, SE17",
            "code": "020",
            "os": "TQ319789"
        },
        {
            "location": "Elm Park",
            "borough": "Havering",
            "town": "HORNCHURCH",
            "postcode": "RM12",
            "code": "01708",
            "os": "TQ525855"
        },
        {
            "location": "Elmers End",
            "borough": "Bromley",
            "town": "BECKENHAM",
            "postcode": "BR3",
            "code": "020",
            "os": "TQ355685"
        },
        {
            "location": "Elmstead",
            "borough": "Bromley",
            "town": "CHISLEHURST",
            "postcode": "BR7",
            "code": "020",
            "os": "TQ425705"
        },
        {
            "location": "Eltham",
            "borough": "Greenwich",
            "town": "LONDON",
            "postcode": "SE9",
            "code": "020",
            "os": "TQ425745"
        },
        {
            "location": "Emerson Park",
            "borough": "Havering",
            "town": "HORNCHURCH",
            "postcode": "RM11",
            "code": "01708",
            "os": "TQ545885"
        },
        {
            "location": "Enfield Highway",
            "borough": "Enfield",
            "town": "ENFIELD",
            "postcode": "EN3",
            "code": "020",
            "os": "TQ355975"
        },
        {
            "location": "Enfield Lock",
            "borough": "Enfield",
            "town": "ENFIELD",
            "postcode": "EN3",
            "code": "01992",
            "os": "TQ365985"
        },
        {
            "location": "Enfield Town",
            "borough": "Enfield",
            "town": "ENFIELD",
            "postcode": "EN1, EN2",
            "code": "020",
            "os": "TQ325965"
        },
        {
            "location": "Enfield Wash",
            "borough": "Enfield",
            "town": "ENFIELD",
            "postcode": "EN3",
            "code": "020",
            "os": "TQ355985"
        },
        {
            "location": "Erith",
            "borough": "Bexley",
            "town": "ERITH",
            "postcode": "DA8, DA18",
            "code": "01322",
            "os": "TQ505775"
        },
        {
            "location": "Falconwood",
            "borough": "Bexley",
            "town": "LONDON, WELLING",
            "postcode": "SE9, DA16",
            "code": "020",
            "os": "TQ455755"
        },
        {
            "location": "Farringdon",
            "borough": "Islington &amp; City",
            "town": "LONDON",
            "postcode": "EC1",
            "code": "020",
            "os": "TQ315818"
        },
        {
            "location": "Feltham",
            "borough": "Hounslow",
            "town": "FELTHAM",
            "postcode": "TW13, TW14",
            "code": "020",
            "os": "TQ105735"
        },
        {
            "location": "Finchley",
            "borough": "Barnet",
            "town": "LONDON",
            "postcode": "N2, N3, N12",
            "code": "020",
            "os": "TQ255905"
        },
        {
            "location": "Finsbury",
            "borough": "Islington",
            "town": "LONDON",
            "postcode": "EC1",
            "code": "020",
            "os": "TQ315825"
        },
        {
            "location": "Finsbury Park",
            "borough": "Haringey",
            "town": "LONDON",
            "postcode": "N4",
            "code": "020",
            "os": "TQ314872"
        },
        {
            "location": "Fitzrovia",
            "borough": "Camden",
            "town": "LONDON",
            "postcode": "W1",
            "code": "020",
            "os": "TQ293816"
        },
        {
            "location": "Foots Cray",
            "borough": "Bexley",
            "town": "SIDCUP",
            "postcode": "DA14",
            "code": "020",
            "os": "TQ472709"
        },
        {
            "location": "Forest Gate",
            "borough": "Newham",
            "town": "LONDON",
            "postcode": "E7",
            "code": "020",
            "os": "TQ405855"
        },
        {
            "location": "Forest Hill",
            "borough": "Lewisham",
            "town": "LONDON",
            "postcode": "SE23",
            "code": "020",
            "os": "TQ354736"
        },
        {
            "location": "Forestdale",
            "borough": "Croydon",
            "town": "CROYDON",
            "postcode": "CR0",
            "code": "020",
            "os": "TQ366625"
        },
        {
            "location": "Fortis Green",
            "borough": "Haringey",
            "town": "LONDON",
            "postcode": "N10",
            "code": "020",
            "os": "TQ281896"
        },
        {
            "location": "Freezywater",
            "borough": "Enfield",
            "town": "ENFIELD",
            "postcode": "EN3",
            "code": "020",
            "os": "TQ361993"
        },
        {
            "location": "Friern Barnet",
            "borough": "Barnet",
            "town": "LONDON",
            "postcode": "N11",
            "code": "020",
            "os": "TQ276920"
        },
        {
            "location": "Frognal",
            "borough": "Camden",
            "town": "LONDON",
            "postcode": "NW3",
            "code": "020",
            "os": "TQ257853"
        },
        {
            "location": "Fulham",
            "borough": "Hammersmith and Fulham",
            "town": "LONDON",
            "postcode": "SW6",
            "code": "020",
            "os": "TQ245765"
        },
        {
            "location": "Fulwell",
            "borough": "Richmond upon Thames",
            "town": "TEDDINGTON, HAMPTON",
            "postcode": "TW11, TW12",
            "code": "020",
            "os": "TQ149719"
        },
        {
            "location": "Gallows Corner",
            "borough": "Havering",
            "town": "ROMFORD",
            "postcode": "RM2, RM3",
            "code": "01708",
            "os": "TQ535905"
        },
        {
            "location": "Gants Hill",
            "borough": "Redbridge",
            "town": "ILFORD",
            "postcode": "IG2",
            "code": "020",
            "os": "TQ435885"
        },
        {
            "location": "Gidea Park",
            "borough": "Havering",
            "town": "ROMFORD",
            "postcode": "RM2",
            "code": "01708",
            "os": "TQ525905"
        },
        {
            "location": "Gipsy Hill",
            "borough": "Lambeth",
            "town": "LONDON",
            "postcode": "SE19, SE27",
            "code": "020",
            "os": "TQ332710"
        },
        {
            "location": "Goddington",
            "borough": "Bromley",
            "town": "ORPINGTON",
            "postcode": "BR6",
            "code": "01689",
            "os": "TQ475655"
        },
        {
            "location": "Golders Green",
            "borough": "Barnet",
            "town": "LONDON",
            "postcode": "NW11",
            "code": "020",
            "os": "TQ248876"
        },
        {
            "location": "Goodmayes",
            "borough": "Redbridge",
            "town": "ILFORD",
            "postcode": "IG3",
            "code": "020",
            "os": "TQ465865"
        },
        {
            "location": "Gospel Oak",
            "borough": "Camden",
            "town": "LONDON",
            "postcode": "NW5, NW3",
            "code": "020",
            "os": "TQ285855"
        },
        {
            "location": "Grahame Park",
            "borough": "Barnet",
            "town": "LONDON",
            "postcode": "NW9",
            "code": "020",
            "os": "TQ217905"
        },
        {
            "location": "Grange Park",
            "borough": "Enfield",
            "town": "LONDON",
            "postcode": "N21",
            "code": "020",
            "os": "TQ313962"
        },
        {
            "location": "Greenford",
            "borough": "Ealing",
            "town": "GREENFORD",
            "postcode": "UB6",
            "code": "020",
            "os": "TQ135825"
        },
        {
            "location": "Greenwich",
            "borough": "Greenwich",
            "town": "LONDON",
            "postcode": "SE10",
            "code": "020",
            "os": "TQ395775"
        },
        {
            "location": "Grove Park",
            "borough": "Lewisham",
            "town": "LONDON",
            "postcode": "SE12",
            "code": "020",
            "os": "TQ404722"
        },
        {
            "location": "Gunnersbury",
            "borough": "Hounslow",
            "town": "LONDON",
            "postcode": "W4",
            "code": "020",
            "os": "TQ195785"
        },
        {
            "location": "Hackney",
            "borough": "Hackney",
            "town": "LONDON",
            "postcode": "E8",
            "code": "020",
            "os": "TQ345845"
        },
        {
            "location": "Hackney Marshes",
            "borough": "Hackney",
            "town": "LONDON",
            "postcode": "E9",
            "code": "020",
            "os": "TQ375845"
        },
        {
            "location": "Hackney Wick",
            "borough": "Hackney",
            "town": "LONDON",
            "postcode": "E9",
            "code": "020",
            "os": "TQ375845"
        },
        {
            "location": "Hadley Wood",
            "borough": "Enfield",
            "town": "BARNET",
            "postcode": "EN4",
            "code": "020",
            "os": "TQ265975"
        },
        {
            "location": "Haggerston",
            "borough": "Hackney",
            "town": "LONDON",
            "postcode": "E2",
            "code": "020",
            "os": "TQ335835"
        },
        {
            "location": "Hainault",
            "borough": "Redbridge",
            "town": "CHIGWELL",
            "postcode": "IG7",
            "code": "020",
            "os": "TQ445915"
        },
        {
            "location": "The Hale",
            "borough": "Barnet",
            "town": "LONDON",
            "postcode": "NW7",
            "code": "020",
            "os": "TQ205918"
        },
        {
            "location": "Ham",
            "borough": "Richmond upon Thames",
            "town": "RICHMOND",
            "postcode": "TW10",
            "code": "020",
            "os": "TQ175725"
        },
        {
            "location": "Hammersmith",
            "borough": "Hammersmith and Fulham",
            "town": "LONDON",
            "postcode": "W6",
            "code": "020",
            "os": "TQ233786"
        },
        {
            "location": "Hampstead",
            "borough": "Camden",
            "town": "LONDON",
            "postcode": "NW3",
            "code": "020",
            "os": "TQ265855"
        },
        {
            "location": "Hampstead Garden Suburb",
            "borough": "Barnet",
            "town": "LONDON",
            "postcode": "N2",
            "code": "020",
            "os": "TQ265885"
        },
        {
            "location": "Hampton",
            "borough": "Richmond upon Thames",
            "town": "HAMPTON",
            "postcode": "TW12",
            "code": "020",
            "os": "TQ135705"
        },
        {
            "location": "Hampton Hill",
            "borough": "Richmond upon Thames",
            "town": "HAMPTON",
            "postcode": "TW12",
            "code": "020",
            "os": "TQ144710"
        },
        {
            "location": "Hampton Wick",
            "borough": "Richmond upon Thames",
            "town": "KINGSTON UPON THAMES",
            "postcode": "KT1",
            "code": "020",
            "os": "TQ176695"
        },
        {
            "location": "Hanwell",
            "borough": "Ealing",
            "town": "LONDON",
            "postcode": "W7",
            "code": "020",
            "os": "TQ153802"
        },
        {
            "location": "Hanworth",
            "borough": "Hounslow",
            "town": "FELTHAM",
            "postcode": "TW13",
            "code": "020",
            "os": "TQ125715"
        },
        {
            "location": "Harefield",
            "borough": "Hillingdon",
            "town": "UXBRIDGE",
            "postcode": "UB9",
            "code": "01895",
            "os": "TQ055905"
        },
        {
            "location": "Harlesden",
            "borough": "Brent",
            "town": "LONDON",
            "postcode": "NW10",
            "code": "020",
            "os": "TQ215835"
        },
        {
            "location": "Harlington",
            "borough": "Hillingdon",
            "town": "HAYES",
            "postcode": "UB3",
            "code": "020",
            "os": "TQ085775"
        },
        {
            "location": "Harmondsworth",
            "borough": "Hillingdon",
            "town": "WEST DRAYTON",
            "postcode": "UB7",
            "code": "020",
            "os": "TQ055775"
        },
        {
            "location": "Harold Hill",
            "borough": "Havering",
            "town": "ROMFORD",
            "postcode": "RM3",
            "code": "01708",
            "os": "TQ545925"
        },
        {
            "location": "Harold Park",
            "borough": "Havering",
            "town": "ROMFORD",
            "postcode": "RM3",
            "code": "01708",
            "os": "TQ555915"
        },
        {
            "location": "Harold Wood",
            "borough": "Havering",
            "town": "ROMFORD",
            "postcode": "RM3",
            "code": "01708",
            "os": "TQ545905"
        },
        {
            "location": "Harringay",
            "borough": "Haringey",
            "town": "LONDON",
            "postcode": "N4, N8, N15",
            "code": "020",
            "os": "TQ317887"
        },
        {
            "location": "Harrow",
            "borough": "Harrow",
            "town": "HARROW",
            "postcode": "HA1",
            "code": "020",
            "os": "TQ145885"
        },
        {
            "location": "Harrow on the Hill",
            "borough": "Harrow",
            "town": "HARROW",
            "postcode": "HA1",
            "code": "020",
            "os": "TQ155865"
        },
        {
            "location": "Harrow Weald",
            "borough": "Harrow",
            "town": "HARROW",
            "postcode": "HA3",
            "code": "020",
            "os": "TQ145885"
        },
        {
            "location": "Hatch End",
            "borough": "Harrow",
            "town": "PINNER",
            "postcode": "HA5",
            "code": "020",
            "os": "TQ125915"
        },
        {
            "location": "Hatton",
            "borough": "Hounslow",
            "town": "FELTHAM",
            "postcode": "TW14",
            "code": "020",
            "os": "TQ095755"
        },
        {
            "location": "Havering-atte-Bower",
            "borough": "Havering",
            "town": "ROMFORD",
            "postcode": "RM4",
            "code": "01708",
            "os": "TQ515935"
        },
        {
            "location": "Hayes",
            "borough": "Bromley",
            "town": "BROMLEY",
            "postcode": "BR2",
            "code": "020",
            "os": "TQ405665"
        },
        {
            "location": "Hayes",
            "borough": "Hillingdon",
            "town": "HAYES",
            "postcode": "UB3, UB4",
            "code": "020",
            "os": "TQ095805"
        },
        {
            "location": "Hazelwood",
            "borough": "Bromley",
            "town": "ORPINGTON",
            "postcode": "BR6",
            "code": "01689",
            "os": ""
        },
        {
            "location": "Hendon",
            "borough": "Barnet",
            "town": "LONDON",
            "postcode": "NW4",
            "code": "020",
            "os": "TQ229887"
        },
        {
            "location": "Herne Hill",
            "borough": "Lambeth",
            "town": "LONDON",
            "postcode": "SE24",
            "code": "020",
            "os": "TQ325745"
        },
        {
            "location": "Heston",
            "borough": "Hounslow",
            "town": "HOUNSLOW",
            "postcode": "TW5",
            "code": "020",
            "os": "TQ125775"
        },
        {
            "location": "Highams Park",
            "borough": "Waltham Forest",
            "town": "LONDON",
            "postcode": "E4",
            "code": "020",
            "os": "TQ375915"
        },
        {
            "location": "Highbury",
            "borough": "Islington",
            "town": "LONDON",
            "postcode": "N5",
            "code": "020",
            "os": "TQ319854"
        },
        {
            "location": "Highgate",
            "borough": "Camden",
            "town": "LONDON",
            "postcode": "N6",
            "code": "020",
            "os": "TQ285875"
        },
        {
            "location": "Hillingdon",
            "borough": "Hillingdon",
            "town": "UXBRIDGE",
            "postcode": "UB8, UB10",
            "code": "020",
            "os": "TQ071827"
        },
        {
            "location": "Hither Green",
            "borough": "Lewisham",
            "town": "LONDON",
            "postcode": "SE13",
            "code": "020",
            "os": "TQ395745"
        },
        {
            "location": "Holborn",
            "borough": "Camden",
            "town": "LONDON",
            "postcode": "WC1, WC2",
            "code": "020",
            "os": "TQ305815"
        },
        {
            "location": "Holland Park",
            "borough": "Kensington and Chelsea",
            "town": "LONDON",
            "postcode": "W8, W11, W14",
            "code": "020",
            "os": "TQ246798"
        },
        {
            "location": "Holloway",
            "borough": "Islington",
            "town": "LONDON",
            "postcode": "N7",
            "code": "020",
            "os": "TQ306859"
        },
        {
            "location": "Homerton",
            "borough": "Hackney",
            "town": "LONDON",
            "postcode": "E9",
            "code": "020",
            "os": "TQ355855"
        },
        {
            "location": "Honor Oak",
            "borough": "Lewisham",
            "town": "LONDON",
            "postcode": "SE",
            "code": "020",
            "os": "TQ355745"
        },
        {
            "location": "Hook",
            "borough": "Kingston upon Thames",
            "town": "CHESSINGTON",
            "postcode": "KT9",
            "code": "020",
            "os": "TQ183647"
        },
        {
            "location": "Hornchurch",
            "borough": "Havering",
            "town": "HORNCHURCH",
            "postcode": "RM11, RM12",
            "code": "01708",
            "os": "TQ535865"
        },
        {
            "location": "Hornsey",
            "borough": "Haringey",
            "town": "LONDON",
            "postcode": "N8",
            "code": "020",
            "os": "TQ305895"
        },
        {
            "location": "Hounslow",
            "borough": "Hounslow",
            "town": "HOUNSLOW",
            "postcode": "TW3",
            "code": "020",
            "os": "TQ145755"
        },
        {
            "location": "Hoxton",
            "borough": "Hackney",
            "town": "LONDON",
            "postcode": "N1",
            "code": "020",
            "os": "TQ335835"
        },
        {
            "location": "The Hyde",
            "borough": "Barnet",
            "town": "LONDON",
            "postcode": "NW9",
            "code": "020",
            "os": "TQ215888"
        },
        {
            "location": "Ickenham",
            "borough": "Hillingdon",
            "town": "UXBRIDGE",
            "postcode": "UB10",
            "code": "01895",
            "os": "TQ075855"
        },
        {
            "location": "Ilford",
            "borough": "Redbridge",
            "town": "ILFORD",
            "postcode": "IG1",
            "code": "020",
            "os": "TQ445865"
        },
        {
            "location": "Isle of Dogs",
            "borough": "Tower Hamlets",
            "town": "LONDON",
            "postcode": "E14",
            "code": "020",
            "os": "TQ375785"
        },
        {
            "location": "Isleworth",
            "borough": "Hounslow",
            "town": "ISLEWORTH",
            "postcode": "TW7",
            "code": "020",
            "os": "TQ155755"
        },
        {
            "location": "Islington",
            "borough": "Islington",
            "town": "LONDON",
            "postcode": "N1",
            "code": "020",
            "os": "TQ315845"
        },
        {
            "location": "Kenley",
            "borough": "Croydon",
            "town": "PURLEY",
            "postcode": "CR8",
            "code": "020",
            "os": "TQ327600"
        },
        {
            "location": "Kennington",
            "borough": "Lambeth",
            "town": "LONDON",
            "postcode": "SE11",
            "code": "020",
            "os": "TQ305775"
        },
        {
            "location": "Kensal Green",
            "borough": "Brent",
            "town": "LONDON",
            "postcode": "NW10, NW6",
            "code": "020",
            "os": "TQ235825"
        },
        {
            "location": "Kensington",
            "borough": "Kensington and Chelsea",
            "town": "LONDON",
            "postcode": "SW7",
            "code": "020",
            "os": "TQ255795"
        },
        {
            "location": "Kentish Town",
            "borough": "Camden",
            "town": "LONDON",
            "postcode": "NW5",
            "code": "020",
            "os": "TQ285845"
        },
        {
            "location": "Kenton",
            "borough": "Brent and Harrow",
            "town": "HARROW",
            "postcode": "HA3",
            "code": "020",
            "os": "TQ175885"
        },
        {
            "location": "Keston",
            "borough": "Bromley",
            "town": "KESTON",
            "postcode": "BR2",
            "code": "01698",
            "os": "TQ415645"
        },
        {
            "location": "Kew",
            "borough": "Richmond upon Thames",
            "town": "RICHMOND",
            "postcode": "TW9",
            "code": "020",
            "os": "TQ195775"
        },
        {
            "location": "Kidbrooke",
            "borough": "Greenwich",
            "town": "LONDON",
            "postcode": "SE3",
            "code": "020",
            "os": "TQ415765"
        },
        {
            "location": "Kilburn",
            "borough": "Brent, Camden",
            "town": "LONDON",
            "postcode": "NW6",
            "code": "020",
            "os": "TQ245835"
        },
        {
            "location": "King's Cross",
            "borough": "Camden and Islington",
            "town": "LONDON",
            "postcode": "WC1",
            "code": "020",
            "os": "TQ315835"
        },
        {
            "location": "Kingsbury",
            "borough": "Brent",
            "town": "LONDON",
            "postcode": "NW9",
            "code": "020",
            "os": "TQ195885"
        },
        {
            "location": "Kingston Vale",
            "borough": "Kingston upon Thames",
            "town": "LONDON",
            "postcode": "SW15",
            "code": "020",
            "os": "TQ215715"
        },
        {
            "location": "Kingston upon Thames",
            "borough": "Kingston upon Thames",
            "town": "KINGSTON UPON THAMES",
            "postcode": "KT1, KT2",
            "code": "020",
            "os": "TQ182693"
        },
        {
            "location": "Knightsbridge",
            "borough": "Westminster",
            "town": "LONDON",
            "postcode": "SW1",
            "code": "020",
            "os": "TQ275795"
        },
        {
            "location": "Ladywell",
            "borough": "Lewisham",
            "town": "LONDON",
            "postcode": "SE4, SE13",
            "code": "020",
            "os": "TQ37777459"
        },
        {
            "location": "Lambeth",
            "borough": "Lambeth",
            "town": "LONDON",
            "postcode": "SE1",
            "code": "020",
            "os": "TQ305785"
        },
        {
            "location": "Lamorbey",
            "borough": "Bexley",
            "town": "SIDCUP",
            "postcode": "DA15",
            "code": "020",
            "os": "TQ460728"
        },
        {
            "location": "Lampton",
            "borough": "Hounslow",
            "town": "HOUNSLOW",
            "postcode": "TW4",
            "code": "020",
            "os": "TQ135765"
        },
        {
            "location": "Lea Bridge",
            "borough": "Hackney",
            "town": "LONDON",
            "postcode": "E10",
            "code": "020",
            "os": "TQ355865"
        },
        {
            "location": "Leamouth",
            "borough": "Tower Hamlets",
            "town": "LONDON",
            "postcode": "E14",
            "code": "020",
            "os": "TQ394807"
        },
        {
            "location": "Leaves Green",
            "borough": "Bromley",
            "town": "KESTON",
            "postcode": "BR2",
            "code": "01689",
            "os": "TQ414616"
        },
        {
            "location": "Lee",
            "borough": "Lewisham",
            "town": "LONDON",
            "postcode": "SE12",
            "code": "020",
            "os": "TQ395745"
        },
        {
            "location": "Lewisham",
            "borough": "Lewisham",
            "town": "LONDON",
            "postcode": "SE13",
            "code": "020",
            "os": "TQ385755"
        },
        {
            "location": "Leyton",
            "borough": "Waltham Forest",
            "town": "LONDON",
            "postcode": "E10, E15",
            "code": "020",
            "os": "TQ375865"
        },
        {
            "location": "Leytonstone",
            "borough": "Waltham Forest",
            "town": "LONDON",
            "postcode": "E11",
            "code": "020",
            "os": "TQ395875"
        },
        {
            "location": "Limehouse",
            "borough": "Tower Hamlets",
            "town": "LONDON",
            "postcode": "E14",
            "code": "020",
            "os": "TQ365815"
        },
        {
            "location": "Lisson Grove",
            "borough": "Westminster",
            "town": "LONDON",
            "postcode": "NW8",
            "code": "020",
            "os": "TQ275825"
        },
        {
            "location": "Little Ilford",
            "borough": "Newham",
            "town": "LONDON",
            "postcode": "E12",
            "code": "020",
            "os": "TQ435855"
        },
        {
            "location": "Locksbottom",
            "borough": "Bromley",
            "town": "ORPINGTON",
            "postcode": "BR6",
            "code": "01689",
            "os": "TQ435655"
        },
        {
            "location": "Longford",
            "borough": "Hillingdon",
            "town": "WEST DRAYTON",
            "postcode": "UB7",
            "code": "01753",
            "os": "TQ045765"
        },
        {
            "location": "Longlands",
            "borough": "Bexley",
            "town": "LONDON, SIDCUP",
            "postcode": "SE9, DA14, DA15",
            "code": "020",
            "os": "TQ449722"
        },
        {
            "location": "Lower Clapton",
            "borough": "Hackney",
            "town": "LONDON",
            "postcode": "E5",
            "code": "020",
            "os": "TQ355855"
        },
        {
            "location": "Lower Morden",
            "borough": "Merton",
            "town": "MORDEN",
            "postcode": "SM4",
            "code": "020",
            "os": "TQ238670"
        },
        {
            "location": "Loxford",
            "borough": "Redbridge",
            "town": "ILFORD",
            "postcode": "IG1",
            "code": "020",
            "os": "TQ441854"
        },
        {
            "location": "Maida Vale",
            "borough": "Westminster",
            "town": "LONDON",
            "postcode": "W9",
            "code": "020",
            "os": "TQ255825"
        },
        {
            "location": "Malden Rushett",
            "borough": "Kingston upon Thames",
            "town": "CHESSINGTON",
            "postcode": "KT9",
            "code": "020",
            "os": "TQ171610"
        },
        {
            "location": "Manor House",
            "borough": "Hackney",
            "town": "LONDON",
            "postcode": "N4",
            "code": "020",
            "os": "TQ320876"
        },
        {
            "location": "Manor Park",
            "borough": "Newham",
            "town": "LONDON",
            "postcode": "E12",
            "code": "020",
            "os": "TQ425855"
        },
        {
            "location": "Marks Gate",
            "borough": "Barking and Dagenham",
            "town": "ROMFORD",
            "postcode": "RM6",
            "code": "020",
            "os": "TQ485905"
        },
        {
            "location": "Maryland",
            "borough": "Newham",
            "town": "LONDON",
            "postcode": "E15",
            "code": "020",
            "os": "TQ391849"
        },
        {
            "location": "Marylebone (also St Marylebone)",
            "borough": "Westminster",
            "town": "LONDON",
            "postcode": "W1",
            "code": "020",
            "os": "TQ285815"
        },
        {
            "location": "Mayfair",
            "borough": "Westminster",
            "town": "LONDON",
            "postcode": "W1",
            "code": "020",
            "os": "TQ285805"
        },
        {
            "location": "Maze Hill",
            "borough": "Greenwich",
            "town": "LONDON",
            "postcode": "SE10",
            "code": "020",
            "os": "TQ402780"
        },
        {
            "location": "Merton Park",
            "borough": "Merton",
            "town": "LONDON",
            "postcode": "SW19",
            "code": "020",
            "os": "TQ250695"
        },
        {
            "location": "Mile End",
            "borough": "Tower Hamlets",
            "town": "LONDON",
            "postcode": "E1",
            "code": "020",
            "os": "TQ365825"
        },
        {
            "location": "Mill Hill",
            "borough": "Barnet",
            "town": "LONDON",
            "postcode": "NW7",
            "code": "020",
            "os": "TQ225925"
        },
        {
            "location": "Millbank",
            "borough": "Westminster",
            "town": "LONDON",
            "postcode": "SW1",
            "code": "020",
            "os": "TQ295795"
        },
        {
            "location": "Millwall",
            "borough": "Tower Hamlets",
            "town": "LONDON",
            "postcode": "E14",
            "code": "020",
            "os": "TQ375785"
        },
        {
            "location": "Mitcham",
            "borough": "Merton",
            "town": "MITCHAM",
            "postcode": "CR4",
            "code": "020",
            "os": "TQ285685"
        },
        {
            "location": "Monken Hadley",
            "borough": "Barnet",
            "town": "BARNET",
            "postcode": "EN5",
            "code": "020",
            "os": "TQ245975"
        },
        {
            "location": "Morden",
            "borough": "Merton",
            "town": "MORDEN",
            "postcode": "SM4",
            "code": "020",
            "os": "TQ255685"
        },
        {
            "location": "Morden Park",
            "borough": "Merton",
            "town": "MORDEN",
            "postcode": "SM4",
            "code": "020",
            "os": "TQ248676"
        },
        {
            "location": "Mortlake",
            "borough": "Richmond upon Thames",
            "town": "LONDON",
            "postcode": "SW14",
            "code": "020",
            "os": "TQ205755"
        },
        {
            "location": "Motspur Park",
            "borough": "Kingston upon Thames",
            "town": "NEW MALDEN",
            "postcode": "KT3",
            "code": "020",
            "os": "TQ225677"
        },
        {
            "location": "Mottingham",
            "borough": "Greenwich",
            "town": "LONDON",
            "postcode": "SE9",
            "code": "020",
            "os": "TQ415725"
        },
        {
            "location": "Muswell Hill",
            "borough": "Haringey",
            "town": "LONDON",
            "postcode": "N10",
            "code": "020",
            "os": "TQ287897"
        },
        {
            "location": "Nag's Head",
            "borough": "Islington",
            "town": "LONDON",
            "postcode": "N7",
            "code": "020",
            "os": "TQ306859"
        },
        {
            "location": "Neasden",
            "borough": "Brent",
            "town": "LONDON",
            "postcode": "NW2, NW10",
            "code": "020",
            "os": "TQ215855"
        },
        {
            "location": "New Addington",
            "borough": "Croydon",
            "town": "CROYDON",
            "postcode": "CR0",
            "code": "020",
            "os": "TQ382622"
        },
        {
            "location": "New Barnet",
            "borough": "Barnet",
            "town": "BARNET",
            "postcode": "EN4, EN5",
            "code": "020",
            "os": "TQ265955"
        },
        {
            "location": "New Cross",
            "borough": "Lewisham",
            "town": "LONDON",
            "postcode": "SE14",
            "code": "020",
            "os": "TQ365765"
        },
        {
            "location": "New Eltham",
            "borough": "Greenwich",
            "town": "LONDON",
            "postcode": "SE9",
            "code": "020",
            "os": "TQ440730"
        },
        {
            "location": "New Malden",
            "borough": "Kingston upon Thames",
            "town": "NEW MALDEN",
            "postcode": "KT3",
            "code": "020",
            "os": "TQ215685"
        },
        {
            "location": "New Southgate",
            "borough": "Barnet",
            "town": "LONDON",
            "postcode": "N11",
            "code": "020",
            "os": "TQ295925"
        },
        {
            "location": "Newbury Park",
            "borough": "Redbridge",
            "town": "ILFORD",
            "postcode": "IG2",
            "code": "020",
            "os": "TQ445885"
        },
        {
            "location": "Newington",
            "borough": "Southwark",
            "town": "LONDON",
            "postcode": "SE1, SE17",
            "code": "020",
            "os": "TQ325795"
        },
        {
            "location": "Nine Elms",
            "borough": "Wandsworth",
            "town": "LONDON",
            "postcode": "SW8",
            "code": "020",
            "os": "TQ295775"
        },
        {
            "location": "Noak Hill",
            "borough": "Havering",
            "town": "ROMFORD",
            "postcode": "RM3, RM4",
            "code": "01708",
            "os": "TQ545935"
        },
        {
            "location": "Norbiton",
            "borough": "Kingston upon Thames",
            "town": "KINGSTON UPON THAMES",
            "postcode": "KT1, KT2",
            "code": "020",
            "os": "TQ195695"
        },
        {
            "location": "Norbury",
            "borough": "Croydon",
            "town": "LONDON",
            "postcode": "SW16",
            "code": "020",
            "os": "TQ315695"
        },
        {
            "location": "North End",
            "borough": "Bexley",
            "town": "ERITH",
            "postcode": "DA8",
            "code": "01322",
            "os": "TQ525765"
        },
        {
            "location": "North Finchley",
            "borough": "Barnet",
            "town": "LONDON",
            "postcode": "N12",
            "code": "020",
            "os": "TQ265925"
        },
        {
            "location": "North Harrow",
            "borough": "Harrow",
            "town": "HARROW",
            "postcode": "HA1, HA2",
            "code": "020",
            "os": "TQ135885"
        },
        {
            "location": "North Kensington",
            "borough": "Kensington and Chelsea",
            "town": "LONDON",
            "postcode": "W10, W11",
            "code": "020",
            "os": "TQ255795"
        },
        {
            "location": "North Ockendon",
            "borough": "Havering",
            "town": "UPMINSTER",
            "postcode": "RM14",
            "code": "01708",
            "os": "TQ595855"
        },
        {
            "location": "North Sheen",
            "borough": "Richmond upon Thames",
            "town": "RICHMOND",
            "postcode": "TW9",
            "code": "020",
            "os": "TQ195765"
        },
        {
            "location": "North Woolwich",
            "borough": "Newham",
            "town": "LONDON",
            "postcode": "E16",
            "code": "020",
            "os": "TQ435795"
        },
        {
            "location": "Northolt",
            "borough": "Ealing",
            "town": "NORTHOLT",
            "postcode": "UB5",
            "code": "020",
            "os": "TQ135845"
        },
        {
            "location": "Northumberland Heath",
            "borough": "Bexley",
            "town": "ERITH",
            "postcode": "DA8",
            "code": "01322",
            "os": "TQ505771"
        },
        {
            "location": "Northwood",
            "borough": "Hillingdon",
            "town": "NORTHWOOD",
            "postcode": "HA6",
            "code": "01923",
            "os": "TQ095915"
        },
        {
            "location": "Norwood Green",
            "borough": "Ealing",
            "town": "SOUTHALL",
            "postcode": "UB2",
            "code": "020",
            "os": "TQ135785"
        },
        {
            "location": "Notting Hill",
            "borough": "Kensington and Chelsea",
            "town": "LONDON",
            "postcode": "W11",
            "code": "020",
            "os": "TQ245805"
        },
        {
            "location": "Nunhead",
            "borough": "Southwark",
            "town": "LONDON",
            "postcode": "SE15",
            "code": "020",
            "os": "TQ355755"
        },
        {
            "location": "Oakleigh Park",
            "borough": "Barnet",
            "town": "LONDON",
            "postcode": "N20",
            "code": "020",
            "os": "TQ265935"
        },
        {
            "location": "Old Coulsdon",
            "borough": "Croydon",
            "town": "COULSDON",
            "postcode": "CR5",
            "code": "01737",
            "os": "TQ315575"
        },
        {
            "location": "Old Ford",
            "borough": "Tower Hamlets",
            "town": "LONDON",
            "postcode": "E3",
            "code": "020",
            "os": "TQ365835"
        },
        {
            "location": "Old Malden",
            "borough": "Kingston upon Thames",
            "town": "WORCESTER PARK",
            "postcode": "KT4",
            "code": "020",
            "os": "TQ215685"
        },
        {
            "location": "Old Oak Common",
            "borough": "Hammersmith and Fulham",
            "town": "LONDON",
            "postcode": "NW10",
            "code": "020",
            "os": "TQ216823"
        },
        {
            "location": "Orpington",
            "borough": "Bromley",
            "town": "ORPINGTON",
            "postcode": "BR5, BR6",
            "code": "01689",
            "os": "TQ460660"
        },
        {
            "location": "Osidge",
            "borough": "Barnet",
            "town": "LONDON",
            "postcode": "N14",
            "code": "020",
            "os": "TQ285945"
        },
        {
            "location": "Osterley",
            "borough": "Hounslow",
            "town": "ISLEWORTH",
            "postcode": "TW7",
            "code": "020",
            "os": "TQ145775"
        },
        {
            "location": "Paddington",
            "borough": "Westminster",
            "town": "LONDON",
            "postcode": "W2",
            "code": "020",
            "os": "TQ267814"
        },
        {
            "location": "Palmers Green",
            "borough": "Enfield",
            "town": "LONDON",
            "postcode": "N13",
            "code": "020",
            "os": "TQ305935"
        },
        {
            "location": "Park Royal",
            "borough": "Brent and Ealing",
            "town": "LONDON",
            "postcode": "NW10",
            "code": "020",
            "os": "TQ195828"
        },
        {
            "location": "Parsons Green",
            "borough": "Hammersmith and Fulham",
            "town": "LONDON",
            "postcode": "SW6",
            "code": "020",
            "os": "TQ255765"
        },
        {
            "location": "Peckham",
            "borough": "Southwark",
            "town": "LONDON",
            "postcode": "SE15",
            "code": "020",
            "os": "TQ345765"
        },
        {
            "location": "Penge",
            "borough": "Bromley",
            "town": "LONDON",
            "postcode": "SE20",
            "code": "020",
            "os": "TQ345705"
        },
        {
            "location": "Pentonville",
            "borough": "Islington",
            "town": "LONDON",
            "postcode": "N1",
            "code": "020",
            "os": "TQ315835"
        },
        {
            "location": "Perivale",
            "borough": "Ealing",
            "town": "GREENFORD",
            "postcode": "UB6",
            "code": "020",
            "os": "TQ165835"
        },
        {
            "location": "Petersham",
            "borough": "Richmond upon Thames",
            "town": "RICHMOND",
            "postcode": "TW10",
            "code": "020",
            "os": "TQ175735"
        },
        {
            "location": "Petts Wood",
            "borough": "Bromley",
            "town": "ORPINGTON",
            "postcode": "BR5",
            "code": "01689",
            "os": "TQ445675"
        },
        {
            "location": "Pimlico",
            "borough": "Westminster",
            "town": "LONDON",
            "postcode": "SW1",
            "code": "020",
            "os": "TQ295785"
        },
        {
            "location": "Pinner",
            "borough": "Harrow",
            "town": "PINNER",
            "postcode": "HA5",
            "code": "020",
            "os": "TQ115895"
        },
        {
            "location": "Plaistow",
            "borough": "Newham",
            "town": "LONDON",
            "postcode": "E13",
            "code": "020",
            "os": "TQ405825"
        },
        {
            "location": "Plaistow",
            "borough": "Bromley",
            "town": "BROMLEY",
            "postcode": "BR1",
            "code": "020",
            "os": "TQ405705"
        },
        {
            "location": "Plumstead",
            "borough": "Greenwich",
            "town": "LONDON",
            "postcode": "SE18",
            "code": "020",
            "os": "TQ445785"
        },
        {
            "location": "Ponders End",
            "borough": "Enfield",
            "town": "ENFIELD",
            "postcode": "EN1, EN3",
            "code": "020",
            "os": "TQ355955"
        },
        {
            "location": "Poplar",
            "borough": "Tower Hamlets",
            "town": "LONDON",
            "postcode": "E14",
            "code": "020",
            "os": "TQ375805"
        },
        {
            "location": "Pratt's Bottom",
            "borough": "Bromley",
            "town": "ORPINGTON",
            "postcode": "BR6",
            "code": "01689",
            "os": "TQ471622"
        },
        {
            "location": "Preston",
            "borough": "Brent",
            "town": "WEMBLEY",
            "postcode": "HA9",
            "code": "020",
            "os": "TQ175855"
        },
        {
            "location": "Primrose Hill",
            "borough": "Camden",
            "town": "LONDON",
            "postcode": "NW1, NW3, NW8",
            "code": "020",
            "os": "TQ282838"
        },
        {
            "location": "Purley",
            "borough": "Croydon",
            "town": "PURLEY",
            "postcode": "CR8",
            "code": "020",
            "os": "TQ313615"
        },
        {
            "location": "Putney",
            "borough": "Wandsworth",
            "town": "LONDON",
            "postcode": "SW15",
            "code": "020",
            "os": "TQ235755"
        },
        {
            "location": "Queen's Park",
            "borough": "Brent",
            "town": "LONDON",
            "postcode": "NW6",
            "code": "020",
            "os": "TQ246832"
        },
        {
            "location": "Queensbury",
            "borough": "Harrow and Brent",
            "town": "HARROW, STANMORE, EDGWARE, LONDON",
            "postcode": "HA3, HA7, HA8",
            "code": "020",
            "os": "TQ185895"
        },
        {
            "location": "Rainham",
            "borough": "Havering",
            "town": "RAINHAM",
            "postcode": "RM13",
            "code": "01708",
            "os": "TQ525825"
        },
        {
            "location": "Ratcliff",
            "borough": "Tower Hamlets",
            "town": "LONDON",
            "postcode": "E1",
            "code": "020",
            "os": "TQ355805"
        },
        {
            "location": "Rayners Lane",
            "borough": "Harrow",
            "town": "PINNER",
            "postcode": "HA5",
            "code": "020",
            "os": "TQ128873"
        },
        {
            "location": "Raynes Park",
            "borough": "Merton",
            "town": "LONDON",
            "postcode": "SW20",
            "code": "020",
            "os": "TQ235685"
        },
        {
            "location": "Redbridge",
            "borough": "Redbridge",
            "town": "ILFORD",
            "postcode": "IG4",
            "code": "020",
            "os": "TQ425885"
        },
        {
            "location": "Richmond",
            "borough": "Richmond upon Thames",
            "town": "RICHMOND",
            "postcode": "TW9, TW10",
            "code": "020",
            "os": "TQ185745"
        },
        {
            "location": "Riddlesdown",
            "borough": "Croydon",
            "town": "PURLEY",
            "postcode": "CR8",
            "code": "020",
            "os": "TQ327608"
        },
        {
            "location": "Roehampton",
            "borough": "Wandsworth",
            "town": "LONDON",
            "postcode": "SW15",
            "code": "020",
            "os": "TQ225745"
        },
        {
            "location": "Romford",
            "borough": "Havering",
            "town": "ROMFORD",
            "postcode": "RM1",
            "code": "01708",
            "os": "TQ510887"
        },
        {
            "location": "Rotherhithe",
            "borough": "Southwark",
            "town": "LONDON",
            "postcode": "SE16",
            "code": "020",
            "os": "TQ358796"
        },
        {
            "location": "Ruislip",
            "borough": "Hillingdon",
            "town": "RUISLIP",
            "postcode": "HA4",
            "code": "01895",
            "os": "TQ085875"
        },
        {
            "location": "Rush Green",
            "borough": "Barking and Dagenham",
            "town": "ROMFORD",
            "postcode": "RM7",
            "code": "020",
            "os": "TQ505875"
        },
        {
            "location": "Ruxley",
            "borough": "Bexley, Bromley",
            "town": "SIDCUP, ORPINGTON",
            "postcode": "DA14, BR5",
            "code": "020, 01689",
            "os": "TQ485704"
        },
        {
            "location": "Sanderstead",
            "borough": "Croydon",
            "town": "SOUTH CROYDON",
            "postcode": "CR2",
            "code": "020",
            "os": "TQ337613"
        },
        {
            "location": "Sands End",
            "borough": "Hammersmith and Fulham",
            "town": "LONDON",
            "postcode": "SW6",
            "code": "020",
            "os": "TQ265765"
        },
        {
            "location": "Selhurst",
            "borough": "Croydon",
            "town": "LONDON",
            "postcode": "SE25",
            "code": "020",
            "os": "TQ340684"
        },
        {
            "location": "Selsdon",
            "borough": "Croydon",
            "town": "SOUTH CROYDON",
            "postcode": "CR2",
            "code": "020",
            "os": "TQ355625"
        },
        {
            "location": "Seven Kings",
            "borough": "Redbridge",
            "town": "ILFORD",
            "postcode": "IG3",
            "code": "020",
            "os": "TQ455875"
        },
        {
            "location": "Seven Sisters",
            "borough": "Haringey",
            "town": "LONDON",
            "postcode": "N15",
            "code": "020",
            "os": "TQ334888"
        },
        {
            "location": "Shacklewell",
            "borough": "Hackney",
            "town": "LONDON",
            "postcode": "E8, N16",
            "code": "020",
            "os": "TQ335855"
        },
        {
            "location": "Shadwell",
            "borough": "Tower Hamlets",
            "town": "LONDON",
            "postcode": "E1",
            "code": "020",
            "os": "TQ355805"
        },
        {
            "location": "Shepherd's Bush",
            "borough": "Hammersmith and Fulham",
            "town": "LONDON",
            "postcode": "W12",
            "code": "020",
            "os": "TQ235798"
        },
        {
            "location": "Shirley",
            "borough": "Croydon",
            "town": "CROYDON",
            "postcode": "CR0",
            "code": "020",
            "os": "TQ361658"
        },
        {
            "location": "Shooter's Hill",
            "borough": "Greenwich",
            "town": "LONDON",
            "postcode": "SE18",
            "code": "020",
            "os": "TQ435765"
        },
        {
            "location": "Shoreditch",
            "borough": "Hackney",
            "town": "LONDON",
            "postcode": "N1",
            "code": "020",
            "os": "TQ325825"
        },
        {
            "location": "Sidcup",
            "borough": "Bexley",
            "town": "SIDCUP",
            "postcode": "DA14, DA15",
            "code": "020",
            "os": "TQ461718"
        },
        {
            "location": "Silvertown",
            "borough": "Newham",
            "town": "LONDON",
            "postcode": "E16",
            "code": "020",
            "os": "TQ415795"
        },
        {
            "location": "Sipson",
            "borough": "Hillingdon",
            "town": "WEST DRAYTON",
            "postcode": "UB7",
            "code": "020",
            "os": "TQ075785"
        },
        {
            "location": "Slade Green",
            "borough": "Bexley",
            "town": "ERITH",
            "postcode": "DA8",
            "code": "01322",
            "os": "TQ525765"
        },
        {
            "location": "Snaresbrook",
            "borough": "Redbridge, Waltham Forest",
            "town": "LONDON",
            "postcode": "E11",
            "code": "020",
            "os": "TQ395895"
        },
        {
            "location": "Soho",
            "borough": "Westminster",
            "town": "LONDON",
            "postcode": "W1",
            "code": "020",
            "os": "TQ295815"
        },
        {
            "location": "Somerstown",
            "borough": "Camden",
            "town": "LONDON",
            "postcode": "NW1",
            "code": "020",
            "os": "TQ295825"
        },
        {
            "location": "South Croydon",
            "borough": "Croydon",
            "town": "SOUTH CROYDON",
            "postcode": "CR2",
            "code": "020",
            "os": "TQ325633"
        },
        {
            "location": "South Hackney",
            "borough": "Hackney",
            "town": "LONDON",
            "postcode": "E9",
            "code": "020",
            "os": "TQ355845"
        },
        {
            "location": "South Harrow",
            "borough": "Harrow",
            "town": "HARROW",
            "postcode": "HA2",
            "code": "020",
            "os": "TQ143863"
        },
        {
            "location": "South Hornchurch",
            "borough": "Havering",
            "town": "RAINHAM",
            "postcode": "RM13",
            "code": "01708",
            "os": "TQ515835"
        },
        {
            "location": "South Kensington",
            "borough": "Kensington and Chelsea",
            "town": "LONDON",
            "postcode": "SW7, SW3, SW5",
            "code": "020",
            "os": "TQ265785"
        },
        {
            "location": "South Norwood",
            "borough": "Croydon",
            "town": "LONDON",
            "postcode": "SE25",
            "code": "020",
            "os": "TQ340684"
        },
        {
            "location": "South Ruislip",
            "borough": "Hillingdon",
            "town": "RUISLIP",
            "postcode": "HA4",
            "code": "01895",
            "os": "TQ115855"
        },
        {
            "location": "South Wimbledon",
            "borough": "Merton",
            "town": "LONDON",
            "postcode": "SW19",
            "code": "020",
            "os": "TQ255705"
        },
        {
            "location": "South Woodford",
            "borough": "Redbridge",
            "town": "LONDON",
            "postcode": "E18",
            "code": "020",
            "os": "TQ405905"
        },
        {
            "location": "South Tottenham",
            "borough": "Haringey",
            "town": "LONDON",
            "postcode": "N15, N17",
            "code": "020",
            "os": "TQ335885"
        },
        {
            "location": "Southend",
            "borough": "Lewisham",
            "town": "LONDON",
            "postcode": "SE6",
            "code": "020",
            "os": "TQ373721"
        },
        {
            "location": "Southall",
            "borough": "Ealing",
            "town": "SOUTHALL",
            "postcode": "UB1, UB2",
            "code": "020",
            "os": "TQ125805"
        },
        {
            "location": "Southborough",
            "borough": "Bromley",
            "town": "BROMLEY",
            "postcode": "BR2",
            "code": "020",
            "os": "TQ423676"
        },
        {
            "location": "Southfields",
            "borough": "Wandsworth",
            "town": "LONDON",
            "postcode": "SW18, SW19",
            "code": "020",
            "os": "TQ255735"
        },
        {
            "location": "Southgate",
            "borough": "Enfield",
            "town": "LONDON",
            "postcode": "N14",
            "code": "020",
            "os": "TQ296942"
        },
        {
            "location": "Spitalfields",
            "borough": "Tower Hamlets",
            "town": "LONDON",
            "postcode": "E1",
            "code": "020",
            "os": "TQ335815"
        },
        {
            "location": "St Helier",
            "borough": "Merton",
            "town": "MORDEN",
            "postcode": "SM4",
            "code": "020",
            "os": "TQ265664"
        },
        {
            "location": "St James's",
            "borough": "Westminster",
            "town": "LONDON",
            "postcode": "SW1",
            "code": "020",
            "os": "TQ295805"
        },
        {
            "location": "St Margarets",
            "borough": "Richmond upon Thames",
            "town": "TWICKENHAM",
            "postcode": "TW1",
            "code": "020",
            "os": "TQ168742"
        },
        {
            "location": "St Giles",
            "borough": "Camden",
            "town": "LONDON",
            "postcode": "WC2",
            "code": "020",
            "os": "TQ305815"
        },
        {
            "location": "St Johns",
            "borough": "Lewisham",
            "town": "LONDON",
            "postcode": "SE4",
            "code": "020",
            "os": "TQ375765"
        },
        {
            "location": "St John's Wood",
            "borough": "Westminster",
            "town": "LONDON",
            "postcode": "NW8",
            "code": "020",
            "os": "TQ265835"
        },
        {
            "location": "St Luke's",
            "borough": "Islington",
            "town": "LONDON",
            "postcode": "EC1",
            "code": "020",
            "os": "TQ325825"
        },
        {
            "location": "St Mary Cray",
            "borough": "Bromley",
            "town": "ORPINGTON",
            "postcode": "BR5",
            "code": "01689",
            "os": "TQ466680"
        },
        {
            "location": "St Pancras",
            "borough": "Camden",
            "town": "LONDON",
            "postcode": "WC1",
            "code": "020",
            "os": "TQ305825"
        },
        {
            "location": "St Paul's Cray",
            "borough": "Bromley",
            "town": "ORPINGTON",
            "postcode": "BR5",
            "code": "01689",
            "os": "TQ466688"
        },
        {
            "location": "Stamford Hill",
            "borough": "Hackney",
            "town": "LONDON",
            "postcode": "N15, N16",
            "code": "020",
            "os": "TQ335875"
        },
        {
            "location": "Stanmore",
            "borough": "Harrow",
            "town": "STANMORE",
            "postcode": "HA7",
            "code": "020",
            "os": "TQ195885"
        },
        {
            "location": "Stepney",
            "borough": "Tower Hamlets",
            "town": "LONDON",
            "postcode": "E1",
            "code": "020",
            "os": "TQ355814"
        },
        {
            "location": "Stockwell",
            "borough": "Lambeth",
            "town": "LONDON",
            "postcode": "SW8, SW9",
            "code": "020",
            "os": "TQ305755"
        },
        {
            "location": "Stoke Newington",
            "borough": "Hackney",
            "town": "LONDON",
            "postcode": "N16",
            "code": "020",
            "os": "TQ335865"
        },
        {
            "location": "Stratford",
            "borough": "Newham",
            "town": "LONDON",
            "postcode": "E15",
            "code": "020",
            "os": "TQ385845"
        },
        {
            "location": "Strawberry Hill",
            "borough": "Richmond upon Thames",
            "town": "TWICKENHAM",
            "postcode": "TW1, TW2",
            "code": "020",
            "os": "TQ155725"
        },
        {
            "location": "Streatham",
            "borough": "Lambeth",
            "town": "LONDON",
            "postcode": "SW16",
            "code": "020",
            "os": "TQ305715"
        },
        {
            "location": "Stroud Green",
            "borough": "Haringey",
            "town": "LONDON",
            "postcode": "N4",
            "code": "020",
            "os": "TQ311881"
        },
        {
            "location": "Sudbury",
            "borough": "Brent, Harrow",
            "town": "HARROW, WEMBLEY",
            "postcode": "HA0, HA1",
            "code": "020",
            "os": "TQ165852"
        },
        {
            "location": "Sundridge",
            "borough": "Bromley",
            "town": "BROMLEY",
            "postcode": "BR1",
            "code": "020",
            "os": ""
        },
        {
            "location": "Surbiton",
            "borough": "Kingston upon Thames",
            "town": "SURBITON",
            "postcode": "KT6",
            "code": "020",
            "os": "TQ180673"
        },
        {
            "location": "Surrey Quays",
            "borough": "Southwark",
            "town": "LONDON",
            "postcode": "SE16",
            "code": "020",
            "os": "TQ356789"
        },
        {
            "location": "Sutton",
            "borough": "Sutton",
            "town": "SUTTON",
            "postcode": "SM1",
            "code": "020",
            "os": "TQ255645"
        },
        {
            "location": "Swiss Cottage",
            "borough": "Camden",
            "town": "LONDON",
            "postcode": "NW3",
            "code": "020",
            "os": "TQ266842"
        },
        {
            "location": "Sydenham (also Lower Sydenham,<br>\nUpper Sydenham)",
            "borough": "Bromley, Lewisham",
            "town": "LONDON",
            "postcode": "SE26",
            "code": "020",
            "os": "TQ352714"
        },
        {
            "location": "Sydenham Hill",
            "borough": "Lewisham,<br>\nSouthwark",
            "town": "LONDON",
            "postcode": "SE21, SE26",
            "code": "020",
            "os": "TQ352714"
        },
        {
            "location": "Teddington",
            "borough": "Richmond upon Thames",
            "town": "TEDDINGTON",
            "postcode": "TW11",
            "code": "020",
            "os": "TQ159708"
        },
        {
            "location": "Temple",
            "borough": "City, Westminster",
            "town": "LONDON",
            "postcode": "EC4, WC2",
            "code": "020",
            "os": "TQ311809"
        },
        {
            "location": "Temple Fortune",
            "borough": "Barnet",
            "town": "BARNET",
            "postcode": "EN5",
            "code": "020",
            "os": "TQ245955"
        },
        {
            "location": "Thamesmead",
            "borough": "Bexley, Greenwich",
            "town": "LONDON, ERITH",
            "postcode": "SE28, SE2, DA18",
            "code": "020",
            "os": "TQ475805"
        },
        {
            "location": "Thornton Heath",
            "borough": "Croydon",
            "town": "THORNTON HEATH",
            "postcode": "CR7",
            "code": "020",
            "os": "TQ315685"
        },
        {
            "location": "Tokyngton",
            "borough": "Brent",
            "town": "WEMBLEY",
            "postcode": "HA9",
            "code": "020",
            "os": "TQ175855"
        },
        {
            "location": "Tolworth",
            "borough": "Kingston upon Thames",
            "town": "SURBITON",
            "postcode": "KT5, KT6",
            "code": "020",
            "os": "TQ197659"
        },
        {
            "location": "Tooting",
            "borough": "Wandsworth",
            "town": "LONDON",
            "postcode": "SW17",
            "code": "020",
            "os": "TQ275715"
        },
        {
            "location": "Tooting Bec",
            "borough": "Wandsworth",
            "town": "LONDON",
            "postcode": "SW17",
            "code": "020",
            "os": "TQ275715"
        },
        {
            "location": "Tottenham",
            "borough": "Haringey",
            "town": "LONDON",
            "postcode": "N15, N17",
            "code": "020",
            "os": "TQ335905"
        },
        {
            "location": "Tottenham Green",
            "borough": "Haringey",
            "town": "LONDON",
            "postcode": "N15",
            "code": "020",
            "os": "TQ337892"
        },
        {
            "location": "Tottenham Hale",
            "borough": "Haringey",
            "town": "LONDON",
            "postcode": "N15, N17",
            "code": "020",
            "os": "TQ345895"
        },
        {
            "location": "Totteridge",
            "borough": "Barnet",
            "town": "LONDON",
            "postcode": "N20",
            "code": "020",
            "os": "TQ245945"
        },
        {
            "location": "Tower Hill",
            "borough": "Tower Hamlets",
            "town": "LONDON",
            "postcode": "EC3",
            "code": "020",
            "os": "TQ333806"
        },
        {
            "location": "Tufnell Park",
            "borough": "Islington",
            "town": "LONDON",
            "postcode": "N7, N19",
            "code": "020",
            "os": "TQ295855"
        },
        {
            "location": "Tulse Hill",
            "borough": "Lambeth",
            "town": "LONDON",
            "postcode": "SE24, SE27",
            "code": "020",
            "os": "TQ315735"
        },
        {
            "location": "Turnpike Lane",
            "borough": "Haringey",
            "town": "LONDON",
            "postcode": "N8",
            "code": "020",
            "os": "TQ305905"
        },
        {
            "location": "Twickenham",
            "borough": "Richmond upon Thames",
            "town": "TWICKENHAM",
            "postcode": "TW1, TW2",
            "code": "020",
            "os": "TQ155735"
        },
        {
            "location": "Upminster",
            "borough": "Havering",
            "town": "UPMINSTER",
            "postcode": "RM14",
            "code": "01708",
            "os": "TQ560865"
        },
        {
            "location": "Upminster Bridge",
            "borough": "Havering",
            "town": "HORNCHURCH",
            "postcode": "RM12",
            "code": "01708",
            "os": "TQ552867"
        },
        {
            "location": "Upper Clapton",
            "borough": "Hackney",
            "town": "LONDON",
            "postcode": "E5",
            "code": "020",
            "os": "TQ345875"
        },
        {
            "location": "Upper Norwood",
            "borough": "Croydon",
            "town": "LONDON",
            "postcode": "SE19",
            "code": "020",
            "os": "TQ329707"
        },
        {
            "location": "Upper Walthamstow",
            "borough": "Waltham Forest",
            "town": "LONDON",
            "postcode": "E17",
            "code": "020",
            "os": "TQ385895"
        },
        {
            "location": "Upton",
            "borough": "Bexley",
            "town": "BEXLEYHEATH",
            "postcode": "DA6",
            "code": "020",
            "os": "TQ485755"
        },
        {
            "location": "Upton Park",
            "borough": "Newham",
            "town": "LONDON",
            "postcode": "E6, E13",
            "code": "020",
            "os": "TQ405837"
        },
        {
            "location": "Uxbridge",
            "borough": "Hillingdon",
            "town": "UXBRIDGE",
            "postcode": "UB8",
            "code": "01895",
            "os": "TQ055835"
        },
        {
            "location": "Vauxhall",
            "borough": "Lambeth",
            "town": "LONDON",
            "postcode": "SW8",
            "code": "020",
            "os": "TQ305785"
        },
        {
            "location": "Waddon",
            "borough": "Croydon",
            "town": "CROYDON",
            "postcode": "CR0",
            "code": "020",
            "os": "TQ315645"
        },
        {
            "location": "Wallington",
            "borough": "Sutton",
            "town": "WALLINGTON",
            "postcode": "SM6",
            "code": "020",
            "os": "TQ294645"
        },
        {
            "location": "Walthamstow",
            "borough": "Waltham Forest",
            "town": "LONDON",
            "postcode": "E17",
            "code": "020",
            "os": "TQ375865"
        },
        {
            "location": "Walthamstow Village",
            "borough": "Waltham Forest",
            "town": "LONDON",
            "postcode": "E17",
            "code": "020",
            "os": "TQ385895"
        },
        {
            "location": "Walworth",
            "borough": "Southwark",
            "town": "LONDON",
            "postcode": "SE17",
            "code": "020",
            "os": "TQ325785"
        },
        {
            "location": "Wandsworth",
            "borough": "Wandsworth",
            "town": "LONDON",
            "postcode": "SW18",
            "code": "020",
            "os": "TQ255755"
        },
        {
            "location": "Wanstead",
            "borough": "Redbridge",
            "town": "LONDON",
            "postcode": "E11",
            "code": "020",
            "os": "TQ405885"
        },
        {
            "location": "Wapping",
            "borough": "Tower Hamlets",
            "town": "LONDON",
            "postcode": "E1",
            "code": "020",
            "os": "TQ345805"
        },
        {
            "location": "Wealdstone",
            "borough": "Harrow",
            "town": "HARROW",
            "postcode": "HA3",
            "code": "020",
            "os": "TQ155895"
        },
        {
            "location": "Welling",
            "borough": "Bexley",
            "town": "WELLING",
            "postcode": "DA16",
            "code": "020",
            "os": "TQ465755"
        },
        {
            "location": "Wembley",
            "borough": "Brent",
            "town": "WEMBLEY",
            "postcode": "HA0, HA9",
            "code": "020",
            "os": "TQ175855"
        },
        {
            "location": "Wembley Park",
            "borough": "Brent",
            "town": "WEMBLEY",
            "postcode": "HA9",
            "code": "020",
            "os": "TQ192863"
        },
        {
            "location": "Wennington",
            "borough": "Havering",
            "town": "RAINHAM",
            "postcode": "RM13",
            "code": "01708",
            "os": "TQ545805"
        },
        {
            "location": "West Brompton",
            "borough": "Kensington and Chelsea",
            "town": "LONDON",
            "postcode": "SW10",
            "code": "020",
            "os": "TQ253779"
        },
        {
            "location": "West Drayton",
            "borough": "Hillingdon",
            "town": "WEST DRAYTON",
            "postcode": "UB7",
            "code": "01895",
            "os": "TQ065795"
        },
        {
            "location": "West Ealing",
            "borough": "Ealing",
            "town": "LONDON",
            "postcode": "W13",
            "code": "020",
            "os": "TQ153802"
        },
        {
            "location": "West Green",
            "borough": "Haringey",
            "town": "LONDON",
            "postcode": "N15",
            "code": "020",
            "os": "TQ324892"
        },
        {
            "location": "West Ham",
            "borough": "Newham",
            "town": "LONDON",
            "postcode": "E13, E15",
            "code": "020",
            "os": "TQ405837"
        },
        {
            "location": "West Hampstead",
            "borough": "Camden",
            "town": "LONDON",
            "postcode": "NW6",
            "code": "020",
            "os": "TQ255855"
        },
        {
            "location": "West Harrow",
            "borough": "Harrow",
            "town": "HARROW",
            "postcode": "HA2",
            "code": "020",
            "os": "TQ145875"
        },
        {
            "location": "West Heath",
            "borough": "Bexley",
            "town": "LONDON",
            "postcode": "SE2",
            "code": "020",
            "os": "TQ475775"
        },
        {
            "location": "West Hendon",
            "borough": "Barnet",
            "town": "LONDON",
            "postcode": "NW9",
            "code": "020",
            "os": "TQ215885"
        },
        {
            "location": "West Kensington",
            "borough": "Hammersmith and Fulham",
            "town": "LONDON",
            "postcode": "W14",
            "code": "020",
            "os": "TQ246783"
        },
        {
            "location": "West Norwood",
            "borough": "Lambeth",
            "town": "LONDON",
            "postcode": "SE27",
            "code": "020",
            "os": "TQ325715"
        },
        {
            "location": "West Wickham",
            "borough": "Bromley",
            "town": "WEST WICKHAM",
            "postcode": "BR4",
            "code": "020",
            "os": "TQ379660"
        },
        {
            "location": "Westcombe Park",
            "borough": "Greenwich",
            "town": "LONDON",
            "postcode": "SE3",
            "code": "020",
            "os": "TQ402780"
        },
        {
            "location": "Westminster",
            "borough": "Westminster",
            "town": "LONDON",
            "postcode": "SW1",
            "code": "020",
            "os": "TQ295795"
        },
        {
            "location": "Whetstone",
            "borough": "Barnet",
            "town": "LONDON",
            "postcode": "N20",
            "code": "020",
            "os": "TQ265935"
        },
        {
            "location": "White City",
            "borough": "Hammersmith and Fulham",
            "town": "LONDON",
            "postcode": "W12",
            "code": "020",
            "os": "TQ233807"
        },
        {
            "location": "Whitechapel",
            "borough": "Tower Hamlets",
            "town": "LONDON",
            "postcode": "E1",
            "code": "020",
            "os": "TQ335815"
        },
        {
            "location": "Whitton",
            "borough": "Richmond upon Thames",
            "town": "TWICKENHAM",
            "postcode": "TW2",
            "code": "020",
            "os": "TQ145735"
        },
        {
            "location": "Willesden",
            "borough": "Brent",
            "town": "LONDON",
            "postcode": "NW10",
            "code": "020",
            "os": "TQ227846"
        },
        {
            "location": "Wimbledon",
            "borough": "Merton",
            "town": "LONDON",
            "postcode": "SW19, SW20",
            "code": "020",
            "os": "TQ239709"
        },
        {
            "location": "Winchmore Hill",
            "borough": "Enfield",
            "town": "LONDON",
            "postcode": "N21",
            "code": "020",
            "os": "TQ315945"
        },
        {
            "location": "Wood Green",
            "borough": "Haringey",
            "town": "LONDON",
            "postcode": "N22",
            "code": "020",
            "os": "TQ305905"
        },
        {
            "location": "Woodford",
            "borough": "Redbridge",
            "town": "LONDON",
            "postcode": "E18",
            "code": "020",
            "os": "TQ405915"
        },
        {
            "location": "Woodford Green",
            "borough": "Redbridge",
            "town": "WOODFORD GREEN",
            "postcode": "IG8",
            "code": "020",
            "os": "TQ405915"
        },
        {
            "location": "Woodlands",
            "borough": "Hounslow",
            "town": "HOUNSLOW",
            "postcode": "TW7",
            "code": "020",
            "os": "TQ155755"
        },
        {
            "location": "Woodside",
            "borough": "Croydon",
            "town": "CROYDON",
            "postcode": "CR0",
            "code": "020",
            "os": "TQ344672"
        },
        {
            "location": "Woodside Park",
            "borough": "Barnet",
            "town": "LONDON",
            "postcode": "N12",
            "code": "020",
            "os": "TQ256925"
        },
        {
            "location": "Woolwich",
            "borough": "Greenwich",
            "town": "LONDON",
            "postcode": "SE18",
            "code": "020",
            "os": "TQ435795"
        },
        {
            "location": "Worcester Park",
            "borough": "Sutton",
            "town": "WORCESTER PARK",
            "postcode": "KT4",
            "code": "020",
            "os": "TQ225655"
        },
        {
            "location": "Wormwood Scrubs",
            "borough": "Hammersmith and Fulham",
            "town": "LONDON",
            "postcode": "W12",
            "code": "020",
            "os": "TQ225815"
        },
        {
            "location": "Yeading",
            "borough": "Hillingdon",
            "town": "HAYES",
            "postcode": "UB4",
            "code": "020",
            "os": "TQ115825"
        },
        {
            "location": "Yiewsley",
            "borough": "Hillingdon",
            "town": "WEST DRAYTON",
            "postcode": "UB7",
            "code": "020",
            "os": "TQ063804"
        }
    ]
}
